[
    {
        "Altitude(m)": 604221.211490007,
        "Argument of Periapsis(deg)": 0.0,
        "Eccentricity": 0.0,
        "Inclination(deg)": 60.0,
        "Latitude(deg)": 14.117286701253153,
        "Longitude(deg)": -176.665824780074,
        "Mean Anomaly(deg)": 16.363599999999984,
        "RAAN(deg)": 275.0,
        "Satellite Name": "Test1 1211",
        "Satellite Number": 1211,
        "Semi-Major Axis(m)": 6980739.136638005,
        "Time(s)": 0
    },
    {
        "Altitude(m)": 604235.352571735,
        "Argument of Periapsis(deg)": 0.00010418945913296404,
        "Eccentricity": 0.0,
        "Inclination(deg)": 60.0,
        "Latitude(deg)": 14.651683028613865,
        "Longitude(deg)": -176.37737693639912,
        "Mean Anomaly(deg)": 16.983706145461838,
        "RAAN(deg)": 274.9995799508602,
        "Satellite Name": "Test1 1211",
        "Satellite Number": 1211,
        "Semi-Major Axis(m)": 6980739.136638005,
        "Time(s)": 10
    },
    {
        "Altitude(m)": 604252.3907436858,
        "Argument of Periapsis(deg)": 0.0002083789182659281,
        "Eccentricity": 0.0,
        "Inclination(deg)": 60.0,
        "Latitude(deg)": 15.185589540294222,
        "Longitude(deg)": -176.08732608604095,
        "Mean Anomaly(deg)": 17.60381229092364,
        "RAAN(deg)": 274.9991599017205,
        "Satellite Name": "Test1 1211",
        "Satellite Number": 1211,
        "Semi-Major Axis(m)": 6980739.136638005,
        "Time(s)": 20
    },
    {
        "Altitude(m)": 604272.2941770016,
        "Argument of Periapsis(deg)": 0.00031256837739889213,
        "Eccentricity": 0.0,
        "Inclination(deg)": 60.0,
        "Latitude(deg)": 15.718984931603154,
        "Longitude(deg)": -175.7956047167547,
        "Mean Anomaly(deg)": 18.223918436385496,
        "RAAN(deg)": 274.9987398525808,
        "Satellite Name": "Test1 1211",
        "Satellite Number": 1211,
        "Semi-Major Axis(m)": 6980739.136638005,
        "Time(s)": 30
    },
    {
        "Altitude(m)": 604295.0297680986,
        "Argument of Periapsis(deg)": 0.0004167578365318562,
        "Eccentricity": 0.0,
        "Inclination(deg)": 60.0,
        "Latitude(deg)": 16.25184756213016,
        "Longitude(deg)": -175.50214379368094,
        "Mean Anomaly(deg)": 18.844024581847346,
        "RAAN(deg)": 274.998319803441,
        "Satellite Name": "Test1 1211",
        "Satellite Number": 1211,
        "Semi-Major Axis(m)": 6980739.136638005,
        "Time(s)": 40
    },
    {
        "Altitude(m)": 604320.5631575893,
        "Argument of Periapsis(deg)": 0.0005209472956648203,
        "Eccentricity": 0.0,
        "Inclination(deg)": 60.0,
        "Latitude(deg)": 16.784155439710826,
        "Longitude(deg)": -175.20687372376412,
        "Mean Anomaly(deg)": 19.46413072730915,
        "RAAN(deg)": 274.9978997543013,
        "Satellite Name": "Test1 1211",
        "Satellite Number": 1211,
        "Semi-Major Axis(m)": 6980739.136638005,
        "Time(s)": 50
    },
    {
        "Altitude(m)": 604348.8587498255,
        "Argument of Periapsis(deg)": 0.0006251367547977843,
        "Eccentricity": 0.0,
        "Inclination(deg)": 60.0,
        "Latitude(deg)": 17.31588620390644,
        "Longitude(deg)": -174.9097238064449,
        "Mean Anomaly(deg)": 20.084236872771,
        "RAAN(deg)": 274.99747970516154,
        "Satellite Name": "Test1 1211",
        "Satellite Number": 1211,
        "Semi-Major Axis(m)": 6980739.136638005,
        "Time(s)": 60
    },
    {
        "Altitude(m)": 604379.879732999,
        "Argument of Periapsis(deg)": 0.0007293262139307483,
        "Eccentricity": 0.0,
        "Inclination(deg)": 60.0,
        "Latitude(deg)": 17.847017108976942,
        "Longitude(deg)": -174.61062168347266,
        "Mean Anomaly(deg)": 20.704343018232805,
        "RAAN(deg)": 274.9970596560218,
        "Satellite Name": "Test1 1211",
        "Satellite Number": 1211,
        "Semi-Major Axis(m)": 6980739.136638005,
        "Time(s)": 70
    },
    {
        "Altitude(m)": 604413.5880998028,
        "Argument of Periapsis(deg)": 0.0008335156730637124,
        "Eccentricity": 0.0,
        "Inclination(deg)": 60.0,
        "Latitude(deg)": 18.37752500632687,
        "Longitude(deg)": -174.3094943006878,
        "Mean Anomaly(deg)": 21.32444916369466,
        "RAAN(deg)": 274.99663960688207,
        "Satellite Name": "Test1 1211",
        "Satellite Number": 1211,
        "Semi-Major Axis(m)": 6980739.136638005,
        "Time(s)": 80
    },
    {
        "Altitude(m)": 604449.9446686998,
        "Argument of Periapsis(deg)": 0.0009377051321966765,
        "Eccentricity": 0.0,
        "Inclination(deg)": 60.0,
        "Latitude(deg)": 18.90738632639283,
        "Longitude(deg)": -174.00626735600457,
        "Mean Anomaly(deg)": 21.94455530915646,
        "RAAN(deg)": 274.9962195577423,
        "Satellite Name": "Test1 1211",
        "Satellite Number": 1211,
        "Semi-Major Axis(m)": 6980739.136638005,
        "Time(s)": 90
    },
    {
        "Altitude(m)": 604488.9091057174,
        "Argument of Periapsis(deg)": 0.0010418945913296407,
        "Eccentricity": 0.0,
        "Inclination(deg)": 60.0,
        "Latitude(deg)": 19.436577059950952,
        "Longitude(deg)": -173.7008647464453,
        "Mean Anomaly(deg)": 22.564661454618314,
        "RAAN(deg)": 274.99579950860254,
        "Satellite Name": "Test1 1211",
        "Satellite Number": 1211,
        "Semi-Major Axis(m)": 6980739.136638005,
        "Time(s)": 100
    },
    {
        "Altitude(m)": 604530.4399467707,
        "Argument of Periapsis(deg)": 0.0011460840504626045,
        "Eccentricity": 0.0,
        "Inclination(deg)": 60.0,
        "Latitude(deg)": 19.96507273881979,
        "Longitude(deg)": -173.39320952708093,
        "Mean Anomaly(deg)": 23.184767600080114,
        "RAAN(deg)": 274.99537945946287,
        "Satellite Name": "Test1 1211",
        "Satellite Number": 1211,
        "Semi-Major Axis(m)": 6980739.136638005,
        "Time(s)": 110
    },
    {
        "Altitude(m)": 604574.4946205307,
        "Argument of Periapsis(deg)": 0.0012502735095955685,
        "Eccentricity": 0.0,
        "Inclination(deg)": 60.0,
        "Latitude(deg)": 20.492848415927057,
        "Longitude(deg)": -173.0832233561113,
        "Mean Anomaly(deg)": 23.80487374554197,
        "RAAN(deg)": 274.9949594103231,
        "Satellite Name": "Test1 1211",
        "Satellite Number": 1211,
        "Semi-Major Axis(m)": 6980739.136638005,
        "Time(s)": 120
    },
    {
        "Altitude(m)": 604621.0294718158,
        "Argument of Periapsis(deg)": 0.0013544629687285324,
        "Eccentricity": 0.0,
        "Inclination(deg)": 60.0,
        "Latitude(deg)": 21.01987864471395,
        "Longitude(deg)": -172.7708259389445,
        "Mean Anomaly(deg)": 24.424979891003822,
        "RAAN(deg)": 274.99453936118334,
        "Satellite Name": "Test1 1211",
        "Satellite Number": 1211,
        "Semi-Major Axis(m)": 6980739.136638005,
        "Time(s)": 130
    },
    {
        "Altitude(m)": 604669.9997854413,
        "Argument of Periapsis(deg)": 0.0014586524278614966,
        "Eccentricity": 0.0,
        "Inclination(deg)": 60.0,
        "Latitude(deg)": 21.546137457852343,
        "Longitude(deg)": -172.4559359841337,
        "Mean Anomaly(deg)": 25.045086036465623,
        "RAAN(deg)": 274.9941193120436,
        "Satellite Name": "Test1 1211",
        "Satellite Number": 1211,
        "Semi-Major Axis(m)": 6980739.136638005,
        "Time(s)": 140
    },
    {
        "Altitude(m)": 604721.3598106208,
        "Argument of Periapsis(deg)": 0.0015628418869944607,
        "Eccentricity": 0.0,
        "Inclination(deg)": 60.0,
        "Latitude(deg)": 22.071598345238915,
        "Longitude(deg)": -172.1384706454154,
        "Mean Anomaly(deg)": 25.665192181927477,
        "RAAN(deg)": 274.9936992629039,
        "Satellite Name": "Test1 1211",
        "Satellite Number": 1211,
        "Semi-Major Axis(m)": 6980739.136638005,
        "Time(s)": 150
    },
    {
        "Altitude(m)": 604775.0627857822,
        "Argument of Periapsis(deg)": 0.0016670313461274247,
        "Eccentricity": 0.0,
        "Inclination(deg)": 60.0,
        "Latitude(deg)": 22.59623423123863,
        "Longitude(deg)": -171.81834496271438,
        "Mean Anomaly(deg)": 26.285298327389278,
        "RAAN(deg)": 274.99327921376414,
        "Satellite Name": "Test1 1211",
        "Satellite Number": 1211,
        "Semi-Major Axis(m)": 6980739.136638005,
        "Time(s)": 160
    },
    {
        "Altitude(m)": 604831.0609638834,
        "Argument of Periapsis(deg)": 0.0017712208052603888,
        "Eccentricity": 0.0,
        "Inclination(deg)": 60.0,
        "Latitude(deg)": 23.120017451149817,
        "Longitude(deg)": -171.49547281498457,
        "Mean Anomaly(deg)": 26.90540447285113,
        "RAAN(deg)": 274.99285916462435,
        "Satellite Name": "Test1 1211",
        "Satellite Number": 1211,
        "Semi-Major Axis(m)": 6980739.136638005,
        "Time(s)": 170
    },
    {
        "Altitude(m)": 604889.3056381756,
        "Argument of Periapsis(deg)": 0.001875410264393353,
        "Eccentricity": 0.0,
        "Inclination(deg)": 60.0,
        "Latitude(deg)": 23.642919726851808,
        "Longitude(deg)": -171.16976635913986,
        "Mean Anomaly(deg)": 27.525510618312932,
        "RAAN(deg)": 274.9924391154846,
        "Satellite Name": "Test1 1211",
        "Satellite Number": 1211,
        "Semi-Major Axis(m)": 6980739.136638005,
        "Time(s)": 180
    },
    {
        "Altitude(m)": 604949.7471683676,
        "Argument of Periapsis(deg)": 0.0019795997235263173,
        "Eccentricity": 0.0,
        "Inclination(deg)": 60.0,
        "Latitude(deg)": 24.164912141606663,
        "Longitude(deg)": -170.84113546795226,
        "Mean Anomaly(deg)": 28.14561676377479,
        "RAAN(deg)": 274.99201906634494,
        "Satellite Name": "Test1 1211",
        "Satellite Number": 1211,
        "Semi-Major Axis(m)": 6980739.136638005,
        "Time(s)": 190
    }
]